SCD 1                   
1 22490U 93009B   26178.60444663  .00000379  00000+0  52569-4 0  9994
2 22490  24.9682 143.2535 0041640 248.1117 273.2741 14.46122339762626
TECHSAT 1B (GO-32)      
1 25397U 98043D   26178.95204773  .00000054  00000+0  43505-4 0  9990
2 25397  99.0072 171.9824 0001587 143.0140 217.1148 14.24430403452865
SCD 2                   
1 25504U 98060A   26178.85933692  .00000376  00000+0  53883-4 0  9994
2 25504  24.9967   6.3445 0016576 235.5476 147.5664 14.45529611461871
DLR-TUBSAT              
1 25757U 99029B   26178.97140905  .00000092  00000+0  34414-4 0  9994
2 25757  98.6699 174.8304 0013440 321.3165  38.7066 14.52429357434817
TERRA                   
1 25994U 99068A   26178.92748325  .00000369  00000+0  83994-4 0  9999
2 25994  97.9451 228.0477 0002419 159.1965  13.8393 14.61111043411171
MAROC-TUBSAT            
1 27004U 01056D   26178.72564645 -.00000017  00000+0  33991-4 0  9995
2 27004  99.8086 355.7840 0020562 115.1231 257.5868 13.70262901227638
AQUA                    
1 27424U 02022A   26178.92808778  .00000751  00000+0  15898-3 0  9994
2 27424  98.4281 148.4258 0000749  67.7686 317.6733 14.62173506284846
SHIYAN-1 (SY-1)         
1 28220U 04012A   26178.94749565  .00013873  00000+0  42356-3 0  9998
2 28220  97.8697 257.7161 0004659 353.3982   6.7197 15.34029995212741
AURA                    
1 28376U 04026A   26178.94146843  .00000735  00000+0  15859-3 0  9996
2 28376  98.3421 135.4839 0001170  83.8173 276.3161 14.61344375167780
IRS-P5 (CARTOSAT-1)     
1 28649U 05017A   26178.81557514  .00001486  00000+0  15539-3 0  9996
2 28649  97.5306 201.3980 0002268  66.9185 293.2273 14.91075758145406
SINAH 1                 
1 28893U 05043D   26178.92008096  .00000327  00000+0  71551-4 0  9994
2 28893  98.2872 313.3059 0013325 239.9907 119.9973 14.64164599102095
RESURS-DK 1             
1 29228U 06021A   26178.81005575  .00002289  00000+0  13444-3 0  9996
2 29228  69.9338 312.0550 0006732 286.8936  73.1492 15.13259446104189
ARIRANG-2 (KOMPSAT-2)   
1 29268U 06031A   26178.96795389  .00000443  00000+0  91639-4 0  9999
2 29268  97.8307   2.8933 0015574  43.4633 111.3408 14.64666836 63055
LAPAN-TUBSAT            
1 29709U 07001A   26178.96106875  .00001098  00000+0  13221-3 0  9990
2 29709  98.1342 178.4278 0012862 144.9354 215.2710 14.85962448 52750
HAIYANG-1B              
1 31113U 07010A   26178.91251089  .00000090  00000+0  49971-4 0  9998
2 31113  98.3499 160.3420 0013736 164.3448 195.8163 14.31029443  2173
COSMO-SKYMED 1          
1 31598U 07023A   26178.96244560  .00002640  00000+0  23371-3 0  9998
2 31598  97.8859  10.9092 0001740  87.9129 272.2291 14.97157259 31406
TERRASAR-X              
1 31698U 07026A   26178.53304298  .00000938  00000+0  47857-4 0  9994
2 31698  97.4454 186.0910 0001737  93.3237 266.8196 15.19147529 54799
WORLDVIEW-1 (WV-1)      
1 32060U 07041A   26178.92658260  .00005952  00000+0  24585-3 0  9992
2 32060  97.3886 298.5166 0001249 337.4022  22.7161 15.24381507 44517
YAOGAN-3                
1 32289U 07055A   26179.00070543  .00000582  00000+0  64761-4 0  9997
2 32289  97.8153 208.7716 0001731  81.0338 279.1076 14.90818163  7487
COSMO-SKYMED 2          
1 32376U 07059A   26178.96272712  .00000403  00000+0  57208-4 0  9994
2 32376  97.8887   2.4044 0001332  89.2963 270.8403 14.82153674  3604
RADARSAT-2              
1 32382U 07061A   26178.95326552 -.00000144  00000+0 -38872-4 0  9995
2 32382  98.5777 185.7315 0001296  86.0937 274.0394 14.29983365967498
CARTOSAT-2A             
1 32783U 08021A   26178.93709889  .00000379  00000+0  57700-4 0  9992
2 32783  97.7635 227.2786 0013343  77.7095 282.5610 14.79252941980392
HUANJING 1A (HJ-1A)     
1 33320U 08041A   26178.95465987  .00000730  00000+0  93478-4 0  9995
2 33320  97.6681 164.3764 0020564 101.6856 258.6668 14.84009074960008
HUANJING 1B (HJ-1B)     
1 33321U 08041B   26178.92864569  .00001245  00000+0  15643-3 0  9991
2 33321  97.6517 167.4905 0037073 145.9381 214.4224 14.83335436960006
GEOEYE 1                
1 33331U 08042A   26178.94545932  .00000432  00000+0  90180-4 0  9992
2 33331  98.1335 252.7426 0005189  38.7271 321.4303 14.64635322951729
THEOS                   
1 33396U 08049A   26178.95996194 -.00000256  00000+0 -10035-3 0  9997
2 33396  98.5573 235.8937 0001191  80.9079 279.2233 14.20133420919495
COSMO-SKYMED 3          
1 33412U 08054A   26178.89986729  .00004667  00000+0  31522-3 0  9990
2 33412  97.8269  37.6486 0014602 226.8858 133.1148 15.07012981958559
YAOGAN-4                
1 33446U 08061A   26178.82616825  .00001010  00000+0  13000-3 0  9995
2 33446  97.9306 112.2579 0015265  40.8015 319.4338 14.83220166947240
GOSAT (IBUKI)           
1 33492U 09002A   26178.77477289 -.00000058  00000+0 -17167-5 0  9998
2 33492  98.0903 289.7239 0001292  83.7273 276.4079 14.67538367933017
DEIMOS-1                
1 35681U 09041A   26178.90300317  .00000540  00000+0  86883-4 0  9999
2 35681  97.7407 335.6666 0002234 115.8427 244.3013 14.75248187908464
